EUTELSAT 16A            
1 37836U 11057A   25354.26912641  .00000128  00000+0  00000+0 0  9990
2 37836   0.0600 337.3790 0005861 292.9990 291.6220  1.00269222  5536
VIASAT-1                
1 37843U 11059A   25354.42753140  .00000000  00000+0  00000+0 0  9994
2 37843   0.0188 341.6124 0001923 289.3295 217.1072  1.00272612 45536
ASIASAT 7               
1 37933U 11069A   25353.64405818  .00000000  00000+0  00000+0 0  9994
2 37933   0.0181  22.1860 0001141 212.8766 190.7904  1.00270755 43054
BEIDOU-2 IGSO-5         
1 37948U 11073A   25354.66284873 -.00000152  00000+0  00000+0 0  9993
2 37948  48.0055 273.7617 0109854 222.3057 285.4855  1.00289655 51342
LUCH-5A                 
1 37951U 11074B   25353.51441367 -.00000032  00000+0  00000+0 0  9991
2 37951   8.2961  76.4843 0005087 189.4736 174.6688  1.00269080 51252
NIGCOMSAT 1R            
1 38014U 11077A   25354.27432645  .00000169  00000+0  00000+0 0  9998
2 38014   0.0587 117.4960 0003375 183.0380 289.8396  1.00270191 51166
WGS F4 (USA 233)        
1 38070U 12003A   25354.35484029  .00000000  00000+0  00000+0 0  9996
2 38070   0.0225  36.1797 0000103 165.6055 103.5498  1.00268484 42351
SES-4                   
1 38087U 12007A   25354.26158635 -.00000144  00000+0  00000+0 0  9999
2 38087   0.0219  22.4979 0002745 241.3645 257.4148  1.00271200 50432
BEIDOU-2 G5             
1 38091U 12008A   25353.66911748  .00000079  00000+0  00000+0 0  9996
2 38091   3.1258  70.6861 0012969 231.3522  86.1393  1.00268606 50560
MUOS-1                  
1 38093U 12009A   25354.55623816 -.00000108  00000+0  00000+0 0  9998
2 38093   5.1116  47.1838 0051417 357.7639 144.7387  1.00270743 50652
INTELSAT 22 (IS-22)     
1 38098U 12011A   25354.42287405 -.00000035  00000+0  00000+0 0  9991
2 38098   0.0147  41.4963 0001805 236.1011  35.9883  1.00270562  5393
APSTAR-7                
1 38107U 12013A   25353.63804495 -.00000077  00000+0  00000+0 0  9996
2 38107   0.0278  72.8409 0002902 215.8895 105.9546  1.00271671 50009
YAHSAT 1B               
1 38245U 12016A   25354.41793402  .00000150  00000+0  00000+0 0  9995
2 38245   0.0601  91.0366 0002556 200.8811 355.3923  1.00272366 43817
AEHF-2 (USA 235)        
1 38254U 12019A   25354.04868066 -.00000116  00000+0  00000+0 0  9999
2 38254   6.2363  58.7789 0003832 208.3669 182.7775  1.00270443  5191
JCSAT-13                
1 38331U 12023A   25354.49836332 -.00000333  00000+0  00000+0 0  9991
2 38331   0.0185 350.2251 0002279 277.9074 124.6143  1.00269416 49742
VINASAT-2               
1 38332U 12023B   25354.50607456 -.00000305  00000+0  00000+0 0  9996
2 38332   0.0123 356.0905 0002230 277.5161 129.7664  1.00272342 44869
NIMIQ 6                 
1 38342U 12026A   25354.47147500 -.00000150  00000+0  00000+0 0  9993
2 38342   0.0152 315.3075 0002461 307.6972 264.9354  1.00273217 48627
ZHONGXING-2A            
1 38352U 12028A   25353.69473828 -.00000269  00000+0  00000+0 0  9995
2 38352   0.9895  86.4485 0002200 190.7661 159.6913  1.00271512 49492
INTELSAT 19 (IS-19)     
1 38356U 12030A   25354.48100553 -.00000033  00000+0  00000+0 0  9991
2 38356   0.0116   4.2995 0002742 261.5808 162.5958  1.00271305 48657
ECHOSTAR 17             
1 38551U 12035A   25354.52372815 -.00000052  00000+0  00000+0 0  9991
2 38551   0.0176   0.6067 0002260 264.2016 265.9927  1.00274249 49279
METEOSAT-10 (MSG-3)     
1 38552U 12035B   25353.33877227  .00000017  00000+0  00000+0 0  9997
2 38552   4.2433  61.7060 0000693 270.0660 238.6463  1.00276524 49057
SES-5                   
1 38652U 12036A   25354.26695973  .00000058  00000+0  00000+0 0  9993
2 38652   0.0580 305.1358 0001985 326.7029 278.3497  1.00274447 42663
INTELSAT 20 (IS-20)     
1 38740U 12043A   25354.42218071  .00000000  00000+0  00000+0 0  9994
2 38740   0.0114  99.7077 0003381  82.6812 127.3428  1.00270417 48956
HYLAS 2                 
1 38741U 12043B   25354.53525670 -.00000236  00000+0  00000+0 0  9995
2 38741   1.9654  83.3108 0003698 198.8699 287.3856  1.00273328 48983
INTELSAT 21 (IS-21)     
1 38749U 12045A   25354.46846100 -.00000261  00000+0  00000+0 0  9999
2 38749   0.0253 289.0499 0001493 331.1928 299.7052  1.00272376 48732
ASTRA 2F                
1 38778U 12051A   25354.21155878  .00000174  00000+0  00000+0 0  9998
2 38778   0.0621 256.1035 0003829 349.6730 307.6169  1.00272566 39340
GSAT-10                 
1 38779U 12051B   25354.56769494 -.00000142  00000+0  00000+0 0  9998
2 38779   0.0729 264.6066 0002418 218.7749 253.4182  1.00272210 48302
INTELSAT 23 (IS-23)     
1 38867U 12057A   25354.46941434 -.00000261  00000+0  00000+0 0  9999
2 38867   0.0148  49.0714 0000609 249.8393 266.4118  1.00269534 48162
BEIDOU-2 G6             
1 38953U 12059A   25354.35388694 -.00000154  00000+0  00000+0 0  9999
2 38953   3.9675  75.4322 0008257 292.2593 292.8441  1.00268970 48114
LUCH-5B                 
1 38977U 12061A   25354.43864120 -.00000121  00000+0  00000+0 0  9994
2 38977  10.0969  51.6321 0006597 195.4287 343.7948  1.00272375 47817
YAMAL 300K              
1 38978U 12061B   25353.51762036  .00000096  00000+0  00000+0 0  9996
2 38978   0.0206 277.5737 0000472 237.6930 302.4045  1.00269871 47830
STAR ONE C3             
1 38991U 12062A   25354.47758775 -.00000225  00000+0  00000+0 0  9998
2 38991   0.0293 285.2284 0001886 354.7660 266.2581  1.00270540 47977
EUTELSAT 21B            
1 38992U 12062B   25354.55556154  .00000153  00000+0  00000+0 0  9994
2 38992   0.0689 339.9936 0003273 293.2201  37.7784  1.00269096 48036
ECHOSTAR 16             
1 39008U 12065A   25354.44308970 -.00000258  00000+0  00000+0 0  9992
2 39008   0.0059  92.9933 0002415 178.0420 276.2643  1.00276372 47846
ZHONGXING-12            
1 39017U 12067A   25353.57005403 -.00000182  00000+0  00000+0 0  9998
2 39017   0.0449  97.5806 0003284 169.0328 114.5233  1.00272094 47702
EUTELSAT 70B            
1 39020U 12069A   25354.42261404 -.00000020  00000+0  00000+0 0  9995
2 39020   0.0611   4.4052 0004278 249.3887  58.0942  1.00271448 47715
YAMAL 402               
1 39022U 12070A   25354.56214825  .00000109  00000+0  00000+0 0  9996
2 39022   0.8063  86.6506 0004064 182.6257  77.3965  1.00271259 47602
SKYNET 5D               
1 39034U 12075A   25354.56171491  .00000123  00000+0  00000+0 0  9991
2 39034   0.0730   3.5151 0003847 264.7922  76.0509  1.00271659 47368
MEXSAT 3                
1 39035U 12075B   25354.48997506 -.00000002  00000+0  00000+0 0  9993
2 39035   0.0164  71.3266 0001641 181.5557 258.0212  1.00271079  5262
TDRS 11                 
1 39070U 13004A   25354.36503412  .00000101  00000+0  00000+0 0  9990
2 39070   3.2659  27.8485 0001145 321.3772  57.1782  1.00264585 44904
AMAZONAS 3              
1 39078U 13006A   25354.51053154 -.00000259  00000+0  00000+0 0  9995
2 39078   0.0378 215.3127 0004885  35.0029 321.8304  1.00270717 43128
AZERSPACE 1             
1 39079U 13006B   25354.41758735  .00000157  00000+0  00000+0 0  9998
2 39079   0.0172  52.2396 0001572 240.5020 352.8263  1.00271958 47019
SBIRS GEO-2 (USA 241)   
1 39120U 13011A   25354.09419773 -.00000266  00000+0  00000+0 0  9993
2 39120   4.1031  52.2228 0002372 216.8773 163.9363  1.00270963 46745
EUTELSAT 117 WEST A     
1 39122U 13012A   25354.42753140  .00000010  00000+0  00000+0 0  9998
2 39122   0.0305 302.0312 0002822 332.7573 211.6045  1.00274588 46646
ANIK G1                 
1 39127U 13014A   25354.45866759 -.00000050  00000+0  00000+0 0  9994
2 39127   0.0250 287.4547 0003307 338.5386 241.1202  1.00271580 46463
ZHONGXING-11            
1 39157U 13020A   25353.65297068 -.00000266  00000+0  00000+0 0  9995
2 39157   0.0109   0.5247 0002408 278.2545 142.7001  1.00269461 46095
EUTELSAT 7B             
1 39163U 13022A   25354.26730640  .00000072  00000+0  00000+0 0  9994
2 39163   0.0652 359.0101 0004381 323.4978 229.8249  1.00270737 46157
WGS F5 (USA 243)        
1 39168U 13024A   25354.25551965  .00000000  00000+0  00000+0 0  9992
2 39168   0.0242  26.5004 0000507  53.9435  48.1251  1.00268163 45383
SES-6                   
1 39172U 13026A   25354.47192769 -.00000237  00000+0  00000+0 0  9999
2 39172   0.0188 345.0004 0002182 288.3501 305.3582  1.00272058 45939
IRNSS-1A                
1 39199U 13034A   25352.77897890  .00000065  00000+0  00000+0 0  9993
2 39199  35.3183  66.4661 0024472 211.0525 145.3931  1.00272479 45557
MUOS-2                  
1 39206U 13036A   25354.48100553  .00000008  00000+0  00000+0 0  9994
2 39206   4.6405  45.1254 0054617 179.9839 209.4100  1.00270166 45403
ALPHASAT                
1 39215U 13038A   25354.27085976  .00000156  00000+0  00000+0 0  9998
2 39215   2.9675   2.8810 0001734 264.8711 303.7320  1.00271901 42223
INSAT-3D                
1 39216U 13038B   25354.50555455 -.00000316  00000+0  00000+0 0  9998
2 39216   1.4638  84.9110 0001790 152.3239 163.5758  1.00277127 45281
WGS F6 (USA 244)        
1 39222U 13041A   25354.51716580  .00000112  00000+0  00000+0 0  9991
2 39222   0.0181  19.1363 0000228 169.3485 311.8588  1.00275109 44277
ES'HAIL 1               
1 39233U 13044A   25354.55634155  .00000167  00000+0  00000+0 0  9997
2 39233   0.0471 359.7397 0002113 275.1229  40.3056  1.00270344 44830
GSAT-7                  
1 39234U 13044B   25354.56596160 -.00000054  00000+0  00000+0 0  9998
2 39234   0.0859  91.7599 0007747 184.4150  90.9802  1.00271768 43460
AMOS-4                  
1 39237U 13045A   25354.42148737  .00000031  00000+0  00000+0 0  9994
2 39237   0.0387  90.8505 0002937 199.5578  15.5878  1.00272825 45163
AEHF-3 (USA 246)        
1 39256U 13050A   25354.34280937  .00000049  00000+0  00000+0 0  9990
2 39256   4.8504  68.8251 0095155 184.5061 194.9871  1.00271480 43861
ASTRA 2E                
1 39285U 13056A   25354.21155878  .00000174  00000+0  00000+0 0  9998
2 39285   0.0568  11.0485 0002236 258.4644 284.2080  1.00274101 44629
